start=new Date('2022-07-18T00:00:00.000Z').valueOf();
sats=[{"GP_ID":"208340120","BSTAR":"0.00157470000000","RA_OF_ASC_NODE":"233.1938","APOAPSIS":"541.476","NORAD_CAT_ID":"51853","LAUNCH_DATE":"2022-03-03","OBJECT_ID":"2022-022B","ECCENTRICITY":"0.00023350","COUNTRY_CODE":"US","OBJECT_TYPE":"PAYLOAD","MEAN_MOTION":"15.08802377","TLE_LINE1":"1 51853U 22022B   22198.91667824  .00024837  00000-0  15747-2 0  9995","ELEMENT_SET_NO":"999","MEAN_ELEMENT_THEORY":"SGP4","EPHEMERIS_TYPE":"0","REF_FRAME":"TEME","EPOCH":"2022-07-17T22:00:00.999936","CLASSIFICATION_TYPE":"U","PERIAPSIS":"538.245","TIME_SYSTEM":"UTC","RCS_SIZE":"LARGE","FILE":"3516387","TLE_LINE2":"2 51853  53.2142 233.1938 0002335  31.9359  88.2092 15.08802377  1307","REV_AT_EPOCH":"130","INCLINATION":"53.2142","SITE":"AFETR","CENTER_NAME":"EARTH","PERIOD":"95.440","ARG_OF_PERICENTER":"31.9359","SEMIMAJOR_AXIS":"6917.995","DECAY_DATE":null,"MEAN_MOTION_DOT":"0.00024837","MEAN_MOTION_DDOT":"0.0000000000000","OBJECT_NAME":"STARLINK-3539","MEAN_ANOMALY":"88.2092"},{"REV_AT_EPOCH":"130","TLE_LINE2":"2 51854  53.2137 233.1889 0001961  44.3010 115.8249 15.08822124  1306","PERIOD":"95.439","CENTER_NAME":"EARTH","SITE":"AFETR","INCLINATION":"53.2137","FILE":"3516387","RCS_SIZE":"LARGE","TIME_SYSTEM":"UTC","EPOCH":"2022-07-17T22:00:00.999936","REF_FRAME":"TEME","EPHEMERIS_TYPE":"0","CLASSIFICATION_TYPE":"U","PERIAPSIS":"538.443","MEAN_ELEMENT_THEORY":"SGP4","MEAN_MOTION_DDOT":"0.0000000000000","MEAN_MOTION_DOT":"0.00031993","DECAY_DATE":null,"MEAN_ANOMALY":"115.8249","OBJECT_NAME":"STARLINK-3541","SEMIMAJOR_AXIS":"6917.935","ARG_OF_PERICENTER":"44.3010","OBJECT_ID":"2022-022C","LAUNCH_DATE":"2022-03-03","ECCENTRICITY":"0.00019610","APOAPSIS":"541.157","NORAD_CAT_ID":"51854","RA_OF_ASC_NODE":"233.1889","GP_ID":"208340870","BSTAR":"0.00202010000000","TLE_LINE1":"1 51854U 22022C   22198.91667824  .00031993  00000-0  20201-2 0  9998","MEAN_MOTION":"15.08822124","ELEMENT_SET_NO":"999","OBJECT_TYPE":"PAYLOAD","COUNTRY_CODE":"US"},{"ELEMENT_SET_NO":"999","MEAN_MOTION":"15.08812975","TLE_LINE1":"1 51855U 22022D   22198.91667824  .00033012  00000-0  20841-2 0  9993","COUNTRY_CODE":"US","OBJECT_TYPE":"PAYLOAD","NORAD_CAT_ID":"51855","APOAPSIS":"540.918","ECCENTRICITY":"0.00015750","LAUNCH_DATE":"2022-03-03","OBJECT_ID":"2022-022D","BSTAR":"0.00208410000000","GP_ID":"208341112","RA_OF_ASC_NODE":"233.1834","ARG_OF_PERICENTER":"43.9605","SEMIMAJOR_AXIS":"6917.963","OBJECT_NAME":"STARLINK-3545","MEAN_ANOMALY":"156.1887","DECAY_DATE":null,"MEAN_MOTION_DOT":"0.00033012","MEAN_MOTION_DDOT":"0.0000000000000","TIME_SYSTEM":"UTC","RCS_SIZE":"LARGE","FILE":"3516387","INCLINATION":"53.2149","SITE":"AFETR","PERIOD":"95.439","CENTER_NAME":"EARTH","TLE_LINE2":"2 51855  53.2149 233.1834 0001575  43.9605 156.1887 15.08812975  1305","REV_AT_EPOCH":"130","MEAN_ELEMENT_THEORY":"SGP4","PERIAPSIS":"538.738","CLASSIFICATION_TYPE":"U","EPHEMERIS_TYPE":"0","REF_FRAME":"TEME","EPOCH":"2022-07-17T22:00:00.999936"},{"ELEMENT_SET_NO":"999","TLE_LINE1":"1 51856U 22022E   22198.91667824  .00032282  00000-0  20384-2 0  9994","MEAN_MOTION":"15.08817342","COUNTRY_CODE":"US","OBJECT_TYPE":"PAYLOAD","NORAD_CAT_ID":"51856","APOAPSIS":"541.173","ECCENTRICITY":"0.00019630","OBJECT_ID":"2022-022E","LAUNCH_DATE":"2022-03-03","BSTAR":"0.00203840000000","GP_ID":"208339371","RA_OF_ASC_NODE":"233.1932","SEMIMAJOR_AXIS":"6917.950","ARG_OF_PERICENTER":"36.4948","MEAN_ANOMALY":"143.6410","OBJECT_NAME":"STARLINK-3568","MEAN_MOTION_DOT":"0.00032282","MEAN_MOTION_DDOT":"0.0000000000000","DECAY_DATE":null,"FILE":"3516387","RCS_SIZE":"LARGE","TIME_SYSTEM":"UTC","PERIOD":"95.439","CENTER_NAME":"EARTH","INCLINATION":"53.2142","SITE":"AFETR","REV_AT_EPOCH":"130","TLE_LINE2":"2 51856  53.2142 233.1932 0001963  36.4948 143.6410 15.08817342  1302","MEAN_ELEMENT_THEORY":"SGP4","CLASSIFICATION_TYPE":"U","PERIAPSIS":"538.457","EPOCH":"2022-07-17T22:00:00.999936","REF_FRAME":"TEME","EPHEMERIS_TYPE":"0"},{"MEAN_ELEMENT_THEORY":"SGP4","REF_FRAME":"TEME","EPHEMERIS_TYPE":"0","EPOCH":"2022-07-17T22:00:00.999936","CLASSIFICATION_TYPE":"U","PERIAPSIS":"538.872","TIME_SYSTEM":"UTC","RCS_SIZE":"LARGE","FILE":"3516387","TLE_LINE2":"2 51857  53.2150 233.1830 0001393  62.1733 177.9593 15.08810575  1307","REV_AT_EPOCH":"130","SITE":"AFETR","INCLINATION":"53.2150","PERIOD":"95.439","CENTER_NAME":"EARTH","ARG_OF_PERICENTER":"62.1733","SEMIMAJOR_AXIS":"6917.970","DECAY_DATE":null,"MEAN_MOTION_DDOT":"0.0000000000000","MEAN_MOTION_DOT":"0.00032947","OBJECT_NAME":"STARLINK-3571","MEAN_ANOMALY":"177.9593","GP_ID":"208339621","BSTAR":"0.00208020000000","RA_OF_ASC_NODE":"233.1830","APOAPSIS":"540.799","NORAD_CAT_ID":"51857","LAUNCH_DATE":"2022-03-03","OBJECT_ID":"2022-022F","ECCENTRICITY":"0.00013930","COUNTRY_CODE":"US","OBJECT_TYPE":"PAYLOAD","MEAN_MOTION":"15.08810575","TLE_LINE1":"1 51857U 22022F   22198.91667824  .00032947  00000-0  20802-2 0  9998","ELEMENT_SET_NO":"999"},{"BSTAR":"0.00205530000000","GP_ID":"208340371","RA_OF_ASC_NODE":"233.1854","NORAD_CAT_ID":"51858","APOAPSIS":"541.043","ECCENTRICITY":"0.00017500","LAUNCH_DATE":"2022-03-03","OBJECT_ID":"2022-022G","COUNTRY_CODE":"US","OBJECT_TYPE":"PAYLOAD","ELEMENT_SET_NO":"999","MEAN_MOTION":"15.08811414","TLE_LINE1":"1 51858U 22022G   22198.91667824  .00032548  00000-0  20553-2 0  9999","MEAN_ELEMENT_THEORY":"SGP4","CLASSIFICATION_TYPE":"U","PERIAPSIS":"538.622","EPHEMERIS_TYPE":"0","REF_FRAME":"TEME","EPOCH":"2022-07-17T22:00:00.999936","TIME_SYSTEM":"UTC","RCS_SIZE":"LARGE","FILE":"3516387","SITE":"AFETR","INCLINATION":"53.2133","PERIOD":"95.439","CENTER_NAME":"EARTH","TLE_LINE2":"2 51858  53.2133 233.1854 0001750  53.2942 166.8553 15.08811414  1301","REV_AT_EPOCH":"130","ARG_OF_PERICENTER":"53.2942","SEMIMAJOR_AXIS":"6917.968","OBJECT_NAME":"STARLINK-3563","MEAN_ANOMALY":"166.8553","DECAY_DATE":null,"MEAN_MOTION_DDOT":"0.0000000000000","MEAN_MOTION_DOT":"0.00032548"},{"TLE_LINE2":"2 51859  53.2145 223.1826 0001699  53.0204  82.0998 15.08817066  1305","REV_AT_EPOCH":"130","INCLINATION":"53.2145","SITE":"AFETR","CENTER_NAME":"EARTH","PERIOD":"95.439","RCS_SIZE":"LARGE","TIME_SYSTEM":"UTC","FILE":"3516387","REF_FRAME":"TEME","EPHEMERIS_TYPE":"0","EPOCH":"2022-07-17T22:00:00.999936","CLASSIFICATION_TYPE":"U","PERIAPSIS":"538.640","MEAN_ELEMENT_THEORY":"SGP4","DECAY_DATE":null,"MEAN_MOTION_DDOT":"0.0000000000000","MEAN_MOTION_DOT":"0.00038953","OBJECT_NAME":"STARLINK-3560","MEAN_ANOMALY":"82.0998","ARG_OF_PERICENTER":"53.0204","SEMIMAJOR_AXIS":"6917.950","LAUNCH_DATE":"2022-03-03","OBJECT_ID":"2022-022H","ECCENTRICITY":"0.00016990","APOAPSIS":"540.991","NORAD_CAT_ID":"51859","RA_OF_ASC_NODE":"223.1826","GP_ID":"208340613","BSTAR":"0.00245360000000","MEAN_MOTION":"15.08817066","TLE_LINE1":"1 51859U 22022H   22198.91667824  .00038953  00000-0  24536-2 0  9991","ELEMENT_SET_NO":"999","OBJECT_TYPE":"PAYLOAD","COUNTRY_CODE":"US"},{"APOAPSIS":"540.835","NORAD_CAT_ID":"51860","LAUNCH_DATE":"2022-03-03","OBJECT_ID":"2022-022J","ECCENTRICITY":"0.00013930","GP_ID":"208339871","BSTAR":"0.00254240000000","RA_OF_ASC_NODE":"223.1775","MEAN_MOTION":"15.08798664","TLE_LINE1":"1 51860U 22022J   22198.91667824  .00040360  00000-0  25424-2 0  9995","ELEMENT_SET_NO":"999","COUNTRY_CODE":"US","OBJECT_TYPE":"PAYLOAD","TIME_SYSTEM":"UTC","RCS_SIZE":"LARGE","FILE":"3516387","TLE_LINE2":"2 51860  53.2153 223.1775 0001393  64.2838  30.8861 15.08798664  1309","REV_AT_EPOCH":"130","SITE":"AFETR","INCLINATION":"53.2153","PERIOD":"95.440","CENTER_NAME":"EARTH","MEAN_ELEMENT_THEORY":"SGP4","EPHEMERIS_TYPE":"0","REF_FRAME":"TEME","EPOCH":"2022-07-17T22:00:00.999936","CLASSIFICATION_TYPE":"U","PERIAPSIS":"538.908","ARG_OF_PERICENTER":"64.2838","SEMIMAJOR_AXIS":"6918.007","DECAY_DATE":null,"MEAN_MOTION_DDOT":"0.0000000000000","MEAN_MOTION_DOT":"0.00040360","OBJECT_NAME":"STARLINK-3559","MEAN_ANOMALY":"30.8861"},{"RA_OF_ASC_NODE":"223.1857","BSTAR":"0.00246750000000","GP_ID":"208340121","OBJECT_ID":"2022-022K","LAUNCH_DATE":"2022-03-03","ECCENTRICITY":"0.00019500","APOAPSIS":"541.136","NORAD_CAT_ID":"51861","OBJECT_TYPE":"PAYLOAD","COUNTRY_CODE":"US","TLE_LINE1":"1 51861U 22022K   22198.91667824  .00039187  00000-0  24675-2 0  9998","MEAN_MOTION":"15.08826326","ELEMENT_SET_NO":"999","EPOCH":"2022-07-17T22:00:00.999936","REF_FRAME":"TEME","EPHEMERIS_TYPE":"0","CLASSIFICATION_TYPE":"U","PERIAPSIS":"538.438","MEAN_ELEMENT_THEORY":"SGP4","REV_AT_EPOCH":"130","TLE_LINE2":"2 51861  53.2146 223.1857 0001950  42.7442 132.2764 15.08826326  1300","PERIOD":"95.438","CENTER_NAME":"EARTH","SITE":"AFETR","INCLINATION":"53.2146","FILE":"3516387","TIME_SYSTEM":"UTC","RCS_SIZE":"LARGE","MEAN_MOTION_DDOT":"0.0000000000000","MEAN_MOTION_DOT":"0.00039187","DECAY_DATE":null,"MEAN_ANOMALY":"132.2764","OBJECT_NAME":"STARLINK-3562","SEMIMAJOR_AXIS":"6917.922","ARG_OF_PERICENTER":"42.7442"},{"REV_AT_EPOCH":"130","TLE_LINE2":"2 51862  53.2169 223.1762 0001728  48.8468  66.2683 15.08809391  1308","PERIOD":"95.439","CENTER_NAME":"EARTH","SITE":"AFETR","INCLINATION":"53.2169","FILE":"3516387","TIME_SYSTEM":"UTC","RCS_SIZE":"LARGE","EPOCH":"2022-07-17T22:00:00.999936","EPHEMERIS_TYPE":"0","REF_FRAME":"TEME","CLASSIFICATION_TYPE":"U","PERIAPSIS":"538.644","MEAN_ELEMENT_THEORY":"SGP4","MEAN_MOTION_DOT":"0.00039533","MEAN_MOTION_DDOT":"0.0000000000000","DECAY_DATE":null,"MEAN_ANOMALY":"66.2683","OBJECT_NAME":"STARLINK-3508","SEMIMAJOR_AXIS":"6917.974","ARG_OF_PERICENTER":"48.8468","OBJECT_ID":"2022-022L","LAUNCH_DATE":"2022-03-03","ECCENTRICITY":"0.00017280","APOAPSIS":"541.034","NORAD_CAT_ID":"51862","RA_OF_ASC_NODE":"223.1762","BSTAR":"0.00249020000000","GP_ID":"208340871","TLE_LINE1":"1 51862U 22022L   22198.91667824  .00039533  00000-0  24902-2 0  9997","MEAN_MOTION":"15.08809391","ELEMENT_SET_NO":"999","OBJECT_TYPE":"PAYLOAD","COUNTRY_CODE":"US"}];
